{
  "type": "FeatureCollection",
  "features": [
    {
      "type": "Feature",
      "properties": {
        "norad_id": 29486,
        "name": "GPS BIIRM-2 (PRN 31)",
        "group": "gps-ops",
        "lat": -46.17485524558919,
        "lon": 26.52401231210877,
        "alt_km": 20468.708534918936,
        "timestamp": "2025-12-08T08:59:01.024366+00:00",
        "meta_object_name": "GPS BIIRM-2 (PRN 31)",
        "meta_object_id": "2006-042A",
        "meta_epoch": "2025-12-07T13:22:14.545056",
        "meta_mean_motion": 2.0055427,
        "meta_eccentricity": 0.01073634,
        "meta_inclination": 54.6934,
        "meta_ra_of_asc_node": 158.9464,
        "meta_arg_of_pericenter": 51.8351,
        "meta_mean_anomaly": 320.4932,
        "meta_ephemeris_type": 0,
        "meta_classification_type": "U",
        "meta_norad_cat_id": 29486,
        "meta_element_set_no": 999,
        "meta_rev_at_epoch": 14055,
        "meta_bstar": 0,
        "meta_mean_motion_dot": 5.8e-07,
        "meta_mean_motion_ddot": 0,
        "tle_line1": "1 29486U 06042A   25341.55711279  .00000058  00000+0  00000+0 0  9994",
        "tle_line2": "2 29486  54.6934 158.9464 0107363  51.8351 320.4932  2.00554270140555"
      },
      "geometry": {
        "type": "Point",
        "coordinates": [
          26.52401231210877,
          -46.17485524558919
        ]
      }
    },
    {
      "type": "Feature",
      "properties": {
        "norad_id": 29601,
        "name": "GPS BIIRM-3 (PRN 12)",
        "group": "gps-ops",
        "lat": -45.67129486123378,
        "lon": 175.72972331624734,
        "alt_km": 20383.726343783415,
        "timestamp": "2025-12-08T08:59:01.024378+00:00",
        "meta_object_name": "GPS BIIRM-3 (PRN 12)",
        "meta_object_id": "2006-052A",
        "meta_epoch": "2025-12-06T23:07:38.134848",
        "meta_mean_motion": 2.0057305,
        "meta_eccentricity": 0.00876251,
        "meta_inclination": 54.9717,
        "meta_ra_of_asc_node": 221.6275,
        "meta_arg_of_pericenter": 87.379,
        "meta_mean_anomaly": 273.714,
        "meta_ephemeris_type": 0,
        "meta_classification_type": "U",
        "meta_norad_cat_id": 29601,
        "meta_element_set_no": 999,
        "meta_rev_at_epoch": 13955,
        "meta_bstar": 0,
        "meta_mean_motion_dot": 3.6e-07,
        "meta_mean_motion_ddot": 0,
        "tle_line1": "1 29601U 06052A   25340.96363582  .00000036  00000+0  00000+0 0  9994",
        "tle_line2": "2 29601  54.9717 221.6275 0087625  87.3790 273.7140  2.00573050139559"
      },
      "geometry": {
        "type": "Point",
        "coordinates": [
          175.72972331624734,
          -45.67129486123378
        ]
      }
    },
    {
      "type": "Feature",
      "properties": {
        "norad_id": 32260,
        "name": "GPS BIIRM-4 (PRN 15)",
        "group": "gps-ops",
        "lat": 52.71502088059543,
        "lon": 160.74095115743978,
        "alt_km": 19742.019122044974,
        "timestamp": "2025-12-08T08:59:01.024390+00:00",
        "meta_object_name": "GPS BIIRM-4 (PRN 15)",
        "meta_object_id": "2007-047A",
        "meta_epoch": "2025-12-07T06:27:37.313568",
        "meta_mean_motion": 2.00564639,
        "meta_eccentricity": 0.01643207,
        "meta_inclination": 53.9516,
        "meta_ra_of_asc_node": 87.9845,
        "meta_arg_of_pericenter": 85.1852,
        "meta_mean_anomaly": 276.674,
        "meta_ephemeris_type": 0,
        "meta_classification_type": "U",
        "meta_norad_cat_id": 32260,
        "meta_element_set_no": 999,
        "meta_rev_at_epoch": 13296,
        "meta_bstar": 0,
        "meta_mean_motion_dot": -2e-07,
        "meta_mean_motion_ddot": 0,
        "tle_line1": "1 32260U 07047A   25341.26918187 -.00000020  00000+0  00000+0 0  9999",
        "tle_line2": "2 32260  53.9516  87.9845 0164320  85.1852 276.6740  2.00564639132968"
      },
      "geometry": {
        "type": "Point",
        "coordinates": [
          160.74095115743978,
          52.71502088059543
        ]
      }
    },
    {
      "type": "Feature",
      "properties": {
        "norad_id": 32384,
        "name": "GPS BIIRM-5 (PRN 29)",
        "group": "gps-ops",
        "lat": -23.600117839445787,
        "lon": 119.47889821255862,
        "alt_km": 20125.12003442712,
        "timestamp": "2025-12-08T08:59:01.024402+00:00",
        "meta_object_name": "GPS BIIRM-5 (PRN 29)",
        "meta_object_id": "2007-062A",
        "meta_epoch": "2025-12-07T07:51:30.252672",
        "meta_mean_motion": 2.00576914,
        "meta_eccentricity": 0.00322165,
        "meta_inclination": 55.187,
        "meta_ra_of_asc_node": 281.863,
        "meta_arg_of_pericenter": 162.6337,
        "meta_mean_anomaly": 10.2823,
        "meta_ephemeris_type": 0,
        "meta_classification_type": "U",
        "meta_norad_cat_id": 32384,
        "meta_element_set_no": 999,
        "meta_rev_at_epoch": 13166,
        "meta_bstar": 0,
        "meta_mean_motion_dot": -4e-07,
        "meta_mean_motion_ddot": 0,
        "tle_line1": "1 32384U 07062A   25341.32743348 -.00000040  00000+0  00000+0 0  9997",
        "tle_line2": "2 32384  55.1870 281.8630 0032216 162.6337  10.2823  2.00576914131665"
      },
      "geometry": {
        "type": "Point",
        "coordinates": [
          119.47889821255862,
          -23.600117839445787
        ]
      }
    },
    {
      "type": "Feature",
      "properties": {
        "norad_id": 32711,
        "name": "GPS BIIRM-6 (PRN 07)",
        "group": "gps-ops",
        "lat": 37.676292045848875,
        "lon": -55.95567347361465,
        "alt_km": 20383.7437886272,
        "timestamp": "2025-12-08T08:59:01.024413+00:00",
        "meta_object_name": "GPS BIIRM-6 (PRN 07)",
        "meta_object_id": "2008-012A",
        "meta_epoch": "2025-12-07T16:30:50.099904",
        "meta_mean_motion": 2.00565328,
        "meta_eccentricity": 0.02022386,
        "meta_inclination": 54.4764,
        "meta_ra_of_asc_node": 157.5746,
        "meta_arg_of_pericenter": 244.892,
        "meta_mean_anomaly": 113.0048,
        "meta_ephemeris_type": 0,
        "meta_classification_type": "U",
        "meta_norad_cat_id": 32711,
        "meta_element_set_no": 999,
        "meta_rev_at_epoch": 12991,
        "meta_bstar": 0,
        "meta_mean_motion_dot": 5.7e-07,
        "meta_mean_motion_ddot": 0,
        "tle_line1": "1 32711U 08012A   25341.68807986  .00000057  00000+0  00000+0 0  9992",
        "tle_line2": "2 32711  54.4764 157.5746 0202238 244.8920 113.0048  2.00565328129917"
      },
      "geometry": {
        "type": "Point",
        "coordinates": [
          -55.95567347361465,
          37.676292045848875
        ]
      }
    },
    {
      "type": "Feature",
      "properties": {
        "norad_id": 35752,
        "name": "GPS BIIRM-8 (PRN 05)",
        "group": "gps-ops",
        "lat": 21.350121612478265,
        "lon": -160.2600810628811,
        "alt_km": 20136.319114863014,
        "timestamp": "2025-12-08T08:59:01.024425+00:00",
        "meta_object_name": "GPS BIIRM-8 (PRN 05)",
        "meta_object_id": "2009-043A",
        "meta_epoch": "2025-12-07T22:53:42.029952",
        "meta_mean_motion": 2.00565864,
        "meta_eccentricity": 0.0051934,
        "meta_inclination": 56.0877,
        "meta_ra_of_asc_node": 34.9719,
        "meta_arg_of_pericenter": 81.9866,
        "meta_mean_anomaly": 127.9119,
        "meta_ephemeris_type": 0,
        "meta_classification_type": "U",
        "meta_norad_cat_id": 35752,
        "meta_element_set_no": 999,
        "meta_rev_at_epoch": 11952,
        "meta_bstar": 0,
        "meta_mean_motion_dot": -7.9e-07,
        "meta_mean_motion_ddot": 0,
        "tle_line1": "1 35752U 09043A   25341.95395868 -.00000079  00000+0  00000+0 0  9991",
        "tle_line2": "2 35752  56.0877  34.9719 0051934  81.9866 127.9119  2.00565864119524"
      },
      "geometry": {
        "type": "Point",
        "coordinates": [
          -160.2600810628811,
          21.350121612478265
        ]
      }
    },
    {
      "type": "Feature",
      "properties": {
        "norad_id": 36585,
        "name": "GPS BIIF-1  (PRN 25)",
        "group": "gps-ops",
        "lat": -54.27814446480868,
        "lon": 128.43456582686113,
        "alt_km": 20488.125534789775,
        "timestamp": "2025-12-08T08:59:01.024437+00:00",
        "meta_object_name": "GPS BIIF-1  (PRN 25)",
        "meta_object_id": "2010-022A",
        "meta_epoch": "2025-12-07T05:49:32.737728",
        "meta_mean_motion": 2.00552848,
        "meta_eccentricity": 0.01258847,
        "meta_inclination": 54.3011,
        "meta_ra_of_asc_node": 216.2957,
        "meta_arg_of_pericenter": 65.0144,
        "meta_mean_anomaly": 109.9417,
        "meta_ephemeris_type": 0,
        "meta_classification_type": "U",
        "meta_norad_cat_id": 36585,
        "meta_element_set_no": 999,
        "meta_rev_at_epoch": 11374,
        "meta_bstar": 0,
        "meta_mean_motion_dot": 3.7e-07,
        "meta_mean_motion_ddot": 0,
        "tle_line1": "1 36585U 10022A   25341.24274002  .00000037  00000+0  00000+0 0  9996",
        "tle_line2": "2 36585  54.3011 216.2957 0125884  65.0144 109.9417  2.00552848113744"
      },
      "geometry": {
        "type": "Point",
        "coordinates": [
          128.43456582686113,
          -54.27814446480868
        ]
      }
    }
  ]
}